STARLINK-2502
1 48327U 21036BD  26061.16668981  .01552568  00000+0  76822-1 0  9993
2 48327  53.0853 135.2878 0001339 121.1064 140.9715 15.13965550  5827
